0 ARIANE 1 DEB
1 28557U 79104W   13283.39208336  .00000090  00000-0  14894-2 0  4632
2 28557 019.7721 341.0852 7406179 177.9554 189.1408 01.97085624 83386
0 ARIANE 1 DEB
1 28557U 79104W   13283.62070485 -.00000118  00000-0  57395-3 0  4636
2 28557 019.7770 340.9986 7404495 178.1106 351.3434 01.97080186 83392
0 ARIANE 1 DEB
1 28557U 79104W   13292.74642926 -.00000331  00000-0 -44624-4 0  4645
2 28557 019.7706 338.2685 7402051 183.1154 345.8752 01.97081522 83578
0 ARIANE 1 DEB
1 28557U 79104W   13293.76968663 -.00000346  00000-0  16469-3 0  4658
2 28557 019.7705 337.9599 7402171 183.6745 351.8611 01.97080767 83594
